NORAD_CAT_ID,OBJECT_NAME,OBJECT_TYPE,EPOCH,MEAN_MOTION,ECCENTRICITY,INCLINATION,RA_OF_ASC_NODE,ARG_OF_PERICENTER,MEAN_ANOMALY,BSTAR,MEAN_MOTION_DOT,MEAN_MOTION_DDOT,TLE_LINE0,TLE_LINE1,TLE_LINE2,SEMIMAJOR_AXIS,PERIOD,APOGEE,PERIGEE,DECAYED
52840.0,STARLINK-4049,PAYLOAD,2022-11-27 20:34:28,15.08840025,0.0002319,53.2174,11.412,29.2798,330.8323,-4.9094e-05,-1.07e-05,0.0,0 STARLINK-4049,1 52840U 22062L   22331.85727438 -.00001070  00000-0 -49094-4 0  9996,2 52840  53.2174  11.4120 0002319  29.2798 330.8323 15.08840025 25444,6917.88,95.438,541.35,538.141,0.0
52840.0,STARLINK-4049,PAYLOAD,2022-11-28 12:28:20,15.08833594,0.0002344,53.2171,8.4384,27.9795,332.1323,-5.5487e-05,-1.171e-05,0.0,0 STARLINK-4049,1 52840U 22062L   22332.51967856 -.00001171  00000-0 -55487-4 0  9995,2 52840  53.2171   8.4384 0002344  27.9795 332.1323 15.08833594 25054,6917.9,95.438,541.387,538.143,0.0
52840.0,STARLINK-4049,PAYLOAD,2022-11-29 18:40:39,15.08832978,0.0002626,53.2177,2.7880000000000003,28.6203,331.4933,7.1096e-05,8.43e-06,0.0,0 STARLINK-4049,1 52840U 22062L   22333.77823731  .00000843  00000-0  71096-4 0  9994,2 52840  53.2177   2.7880 0002626  28.6203 331.4933 15.08832978 25732,6917.901999999999,95.438,541.5830000000002,537.95,0.0
52840.0,STARLINK-4049,PAYLOAD,2022-11-30 10:34:31,15.08829788,0.0002508,53.217,359.8156,27.5924,332.5201,-5.2978e-05,-1.131e-05,0.0,0 STARLINK-4049,1 52840U 22062L   22334.44064603 -.00001131  00000-0 -52978-4 0  9995,2 52840  53.2170 359.8156 0002508  27.5924 332.5201 15.08829788 25346,6917.9119999999975,95.438,541.512,538.0419999999998,0.0
52840.0,STARLINK-4049,PAYLOAD,2022-12-01 00:52:59,15.08842111,0.000225,53.2179,357.13800000000015,31.1936,328.9189,5.6931e-05,6.18e-06,0.0,0 STARLINK-4049,1 52840U 22062L   22335.03679547  .00000618  00000-0  56931-4 0  9990,2 52840  53.2179 357.1380 0002250  31.1936 328.9189 15.08842111 25926,6917.874,95.437,541.295,538.182,0.0
52840.0,STARLINK-4049,PAYLOAD,2022-12-01 12:00:41,15.08835043,0.0002222,53.2176,355.0569,34.4558,325.6578,9.5114e-05,1.226e-05,0.0,0 STARLINK-4049,1 52840U 22062L   22335.50047892  .00001226  00000-0  95114-4 0  9996,2 52840  53.2176 355.0569 0002222  34.4558 325.6578 15.08835043 25500,6917.896,95.438,541.298,538.2230000000002,0.0
52840.0,STARLINK-4049,PAYLOAD,2022-12-01 18:22:13,15.08844525,0.0002423,53.2172,353.8676,28.3147,331.7976,-3.1941e-05,-7.97e-06,0.0,0 STARLINK-4049,1 52840U 22062L   22335.76543682 -.00000797  00000-0 -31941-4 0  9994,2 52840  53.2172 353.8676 0002423  28.3147 331.7976 15.08844525 25549,6917.8669999999975,95.437,541.408,538.055,0.0
52840.0,STARLINK-4049,PAYLOAD,2022-12-02 10:16:06,15.08821365,0.000237,53.2168,350.8927,29.6177,330.4949,-3.208e-05,-7.99e-06,0.0,0 STARLINK-4049,1 52840U 22062L   22336.42785519 -.00000799  00000-0 -32080-4 0  9992,2 52840  53.2168 350.8927 0002370  29.6177 330.4949 15.08821365 26137,6917.937,95.439,541.442,538.163,0.0
52840.0,STARLINK-4049,PAYLOAD,2022-12-02 18:13:02,15.08826438,0.0002577,53.2168,349.4061,27.3251,332.7876,-1.2771e-05,-4.92e-06,0.0,0 STARLINK-4049,1 52840U 22062L   22336.75905483 -.00000492  00000-0 -12771-4 0  9997,2 52840  53.2168 349.4061 0002577  27.3251 332.7876 15.08826438 25697,6917.922,95.438,541.57,538.004,0.0
52840.0,STARLINK-4049,PAYLOAD,2022-12-03 06:56:07,15.08832974,0.0002417,53.2169,347.0269,31.7469,328.3669,6.1192999999999975e-06,-1.91e-06,0.0,0 STARLINK-4049,1 52840U 22062L   22337.28897179 -.00000191  00000-0  61193-5 0  9996,2 52840  53.2169 347.0269 0002417  31.7469 328.3669 15.08832974 26262,6917.901999999999,95.438,541.439,538.095,0.0
52840.0,STARLINK-4049,PAYLOAD,2022-12-03 08:31:30,15.08837268,0.0002651,53.217,346.7295,31.5051,328.61,2.3547e-05,8.6e-07,0.0,0 STARLINK-4049,1 52840U 22062L   22337.35520927  .00000086  00000-0  23547-4 0  9990,2 52840  53.2170 346.7295 0002651  31.5051 328.6100 15.08837268 25784,6917.889,95.438,541.5880000000002,537.92,0.0
52840.0,STARLINK-4049,PAYLOAD,2022-12-03 13:17:39,15.08842054,0.000264,53.2169,345.8379,31.7694,328.3457,3.7422e-05,3.07e-06,0.0,0 STARLINK-4049,1 52840U 22062L   22337.55392608  .00000307  00000-0  37422-4 0  9998,2 52840  53.2169 345.8379 0002640  31.7694 328.3457 15.08842054 25813,6917.874,95.437,541.565,537.913,0.0
52840.0,STARLINK-4049,PAYLOAD,2022-12-03 18:03:48,15.08845665,0.0002715,53.217,344.9462,32.6426,327.4733,7.0975e-05,8.41e-06,0.0,0 STARLINK-4049,1 52840U 22062L   22337.75264274  .00000841  00000-0  70975-4 0  9990,2 52840  53.2170 344.9462 0002715  32.6426 327.4733 15.08845665 26330,6917.863,95.437,541.606,537.85,0.0
52840.0,STARLINK-4049,PAYLOAD,2022-12-04 09:57:40,15.08832492,0.0002708,53.2169,341.9726,34.5293,325.5875,0.00015095,2.114e-05,0.0,0 STARLINK-4049,1 52840U 22062L   22338.41504945  .00002114  00000-0  15095-3 0  9992,2 52840  53.2169 341.9726 0002708  34.5293 325.5875 15.08832492 26434,6917.903,95.438,541.6419999999998,537.895,0.0
52840.0,STARLINK-4049,PAYLOAD,2022-12-04 17:54:35,15.08841341,0.0002721,53.217,340.4858,35.0116,325.1055,0.0001651,2.34e-05,0.0,0 STARLINK-4049,1 52840U 22062L   22338.74624424  .00002340  00000-0  16510-3 0  9997,2 52840  53.2170 340.4858 0002721  35.0116 325.1055 15.08841341 26485,6917.876,95.437,541.624,537.859,0.0
52840.0,STARLINK-4049,PAYLOAD,2022-12-05 09:48:26,15.08847291,0.0002772,53.2171,337.5124,36.6003,323.5178,7.462899999999999e-05,9e-06,0.0,0 STARLINK-4049,1 52840U 22062L   22339.40864282  .00000900  00000-0  74629-4 0  9995,2 52840  53.2171 337.5124 0002772  36.6003 323.5178 15.08847291 26092,6917.858,95.437,541.641,537.805,0.0
52840.0,STARLINK-4049,PAYLOAD,2022-12-06 06:28:26,15.08849172,0.0002737,53.2171,333.6459,37.8108,322.3076,6.7184e-05,7.81e-06,0.0,0 STARLINK-4049,1 52840U 22062L   22340.26975658  .00000781  00000-0  67184-4 0  9996,2 52840  53.2171 333.6459 0002737  37.8108 322.3076 15.08849172 26713,6917.852,95.437,541.611,537.8240000000002,0.0
52840.0,STARLINK-4049,PAYLOAD,2022-12-07 07:54:38,15.08834899,0.0002766,53.2164,328.8882,33.4511,326.6655,-5.5484e-05,-1.171e-05,0.0,0 STARLINK-4049,1 52840U 22062L   22341.32961099 -.00001171  00000-0 -55484-4 0  9994,2 52840  53.2164 328.8882 0002766  33.4511 326.6655 15.08834899 26870,6917.896,95.438,541.674,537.847,0.0
52840.0,STARLINK-4049,PAYLOAD,2022-12-07 15:51:34,15.08831278,0.0002783,53.2177,327.4015,36.144,323.9739,-9.6116e-05,-1.818e-05,0.0,0 STARLINK-4049,1 52840U 22062L   22341.66081588 -.00001818  00000-0 -96116-4 0  9992,2 52840  53.2177 327.4015 0002783  36.1440 323.9739 15.08831278 26430,6917.906999999997,95.438,541.697,537.847,0.0
52840.0,STARLINK-4049,PAYLOAD,2022-12-07 23:48:29,15.08842534,0.0002542,53.2174,325.9163,37.3048,322.812,-7.784099999999999e-06,-4.12e-06,0.0,0 STARLINK-4049,1 52840U 22062L   22341.99200754 -.00000412  00000-0 -77841-5 0  9990,2 52840  53.2174 325.9163 0002542  37.3048 322.8120 15.08842534 26972,6917.873000000001,95.437,541.496,537.979,0.0
52840.0,STARLINK-4049,PAYLOAD,2022-12-08 07:45:21,15.08885995,0.0002202,53.2175,324.4307,27.1844,332.9264,0.00036371,5.512e-05,0.0,0 STARLINK-4049,1 52840U 22062L   22342.32316799  .00005512  00000-0  36371-3 0  9990,2 52840  53.2175 324.4307 0002202  27.1844 332.9264 15.08885995 26532,6917.74,95.435,541.128,538.082,0.0
52840.0,STARLINK-4049,PAYLOAD,2022-12-08 15:42:19,15.08859186,0.0002282,53.2171,322.9435,30.0911,330.0212,1.3768e-05,-6.9e-07,0.0,0 STARLINK-4049,1 52840U 22062L   22342.65439120 -.00000069  00000-0  13768-4 0  9999,2 52840  53.2171 322.9435 0002282  30.0911 330.0212 15.08859186 27074,6917.821999999999,95.436,541.265,538.1080000000002,0.0
52840.0,STARLINK-4049,PAYLOAD,2022-12-09 07:36:10,15.08848808,0.000175,53.217,319.9702,12.6522,347.4514,0.00015139,2.123e-05,0.0,0 STARLINK-4049,1 52840U 22062L   22343.31679093  .00002123  00000-0  15139-3 0  9993,2 52840  53.2170 319.9702 0001750  12.6522 347.4514 15.08848808 27176,6917.853,95.437,540.929,538.508,0.0
52840.0,STARLINK-4049,PAYLOAD,2022-12-10 05:51:37,15.08834716,0.0002406,53.2175,315.8065,32.9184,327.1958,-5.7505e-05,-1.203e-05,0.0,0 STARLINK-4049,1 52840U 22062L   22344.24418063 -.00001203  00000-0 -57505-4 0  9998,2 52840  53.2175 315.8065 0002406  32.9184 327.1958 15.08834716 27312,6917.897,95.438,541.4259999999998,538.097,0.0
52840.0,STARLINK-4049,PAYLOAD,2022-12-10 09:02:23,15.08837205,0.0002688,53.217,315.2097,30.172,329.9426,-3.4085e-05,-8.31e-06,0.0,0 STARLINK-4049,1 52840U 22062L   22344.37665959 -.00000831  00000-0 -34085-4 0  9994,2 52840  53.2170 315.2097 0002688  30.1720 329.9426 15.08837205 26847,6917.889,95.438,541.613,537.894,0.0
52840.0,STARLINK-4049,PAYLOAD,2022-12-11 05:42:23,15.08853053,0.0002206,53.218,311.3402,38.8614,321.2536,7.5818e-07,-2.76e-06,0.0,0 STARLINK-4049,1 52840U 22062L   22345.23776668 -.00000276  00000-0  75818-6 0  9993,2 52840  53.2180 311.3402 0002206  38.8614 321.2536 15.08853053 27463,6917.84,95.437,541.232,538.179,0.0
52840.0,STARLINK-4049,PAYLOAD,2022-12-11 07:17:46,15.08844187,0.0002039,53.2176,311.0429,42.1995,317.9154,0.00016312,2.309e-05,0.0,0 STARLINK-4049,1 52840U 22062L   22345.30401262  .00002309  00000-0  16312-3 0  9995,2 52840  53.2176 311.0429 0002039  42.1995 317.9154 15.08844187 27475,6917.868,95.437,541.143,538.322,0.0
52840.0,STARLINK-4049,PAYLOAD,2022-12-12 03:57:47,15.08844873,0.0002611,53.2177,307.1786,31.1091,329.0055,0.00022507,3.296e-05,0.0,0 STARLINK-4049,1 52840U 22062L   22346.16513626  .00003296  00000-0  22507-3 0  9997,2 52840  53.2177 307.1786 0002611  31.1091 329.0055 15.08844873 27600,6917.865,95.437,541.5369999999998,537.924,0.0
52840.0,STARLINK-4049,PAYLOAD,2022-12-13 03:48:35,15.08838006,0.0002435,53.2172,302.7187,30.1468,329.9664,1.5974e-05,-3.4e-07,0.0,0 STARLINK-4049,1 52840U 22062L   22347.15873881 -.00000034  00000-0  15974-4 0  9998,2 52840  53.2172 302.7187 0002435  30.1468 329.9664 15.08838006 27754,6917.886,95.438,541.436,538.067,0.0
